2024-092C               
1 59775U 24092C   24144.86384170  .00014361  00000+0  91038-3 0  9990
2 59775  97.5993 256.9907 0011927 282.2210 194.9733 15.08978509  1023
2024-092D               
1 59776U 24092D   24144.86966096  .00016648  00000+0  10914-2 0  9997
2 59776  97.5937 256.9760 0011612 248.4788 229.7819 15.07710911  1026
2024-092E               
1 59777U 24092E   24144.87547593  .00016010  00000+0  10494-2 0  9992
2 59777  97.5959 256.9809 0012179 256.8157 253.3100 15.07721339  1029
2024-092F               
1 59778U 24092F   24144.86978189  .00016266  00000+0  10644-2 0  9991
2 59778  97.5961 256.9753 0012322 256.8496 223.6916 15.07776944  1024
2024-092G               
1 59779U 24092G   24144.85195313  .00000795  00000+0  31845-3 0  9998
2 59779  98.6031 256.9725 0011047 270.8460  89.1410 14.31070512   975
2024-092H               
1 59780U 24092H   24144.78201217  .00000583  00000+0  23788-3 0  9995
2 59780  98.6047 256.9031 0011333 272.8593  87.1293 14.31074327   965
2024-092J               
1 59781U 24092J   24144.85191219  .00000945  00000+0  37509-3 0  9992
2 59781  98.6045 256.9715 0011439 271.2190  88.7561 14.31079795   976
STARLINK-31363          
1 59782U 24093A   24145.50001157 -.00474529  83989-4 -10054-2 0  9990
2 59782  43.0028 340.9443 0002514 261.8641  84.9840 15.97734107  2219
STARLINK-31868          
1 59783U 24093B   24144.83335648 -.00736022  00000+0 -24262-2 0  9994
2 59783  43.0036 345.3055 0001625 282.1436 115.2867 15.91079954  2119
STARLINK-31848          
1 59784U 24093C   24144.83335648 -.00806439  20257-3 -24421-2 0  9992
2 59784  43.0036 345.3027 0001571 274.2316 124.3775 15.91158487  2116
STARLINK-31890          
1 59785U 24093D   24145.25001157 -.00771884  00000+0 -26151-2 0  9992
2 59785  43.0036 342.7091 0002081 270.9377 358.2551 15.90624909  2167
STARLINK-31862          
1 59786U 24093E   24145.25001157 -.00784258  00000+0 -26433-2 0  9995
2 59786  43.0035 342.7031 0001677 253.5159  17.9846 15.90755528  2018
STARLINK-31870          
1 59787U 24093F   24144.83335648 -.00815238  20690-3 -24502-2 0  9993
2 59787  43.0036 345.2968 0001628 276.7300 124.1855 15.91305932  2065
STARLINK-31888          
1 59788U 24093G   24144.83335648 -.00840841  21940-3 -24947-2 0  9994
2 59788  43.0035 345.2872 0001653 269.4514 135.1918 15.91560133  2061
STARLINK-31863          
1 59789U 24093H   24144.83335648 -.00828798  21358-3 -24674-2 0  9992
2 59789  43.0035 345.2900 0001691 275.8708 127.7582 15.91491786  2119
STARLINK-31873          
1 59790U 24093J   24144.83335648 -.00835526  21711-3 -24655-2 0  9993
2 59790  43.0035 345.2833 0001687 286.1605 120.0603 15.91663780  2117
STARLINK-31865          
1 59791U 24093K   24145.16667824 -.00858325  22707-3 -25894-2 0  9999
2 59791  43.0036 343.2060 0001892 278.4246 241.2910 15.91240250  2156
STARLINK-31893          
1 59792U 24093L   24144.83335648 -.00849166  22400-3 -24821-2 0  9991
2 59792  43.0034 345.2765 0001725 286.7597 122.1608 15.91848619  2126
STARLINK-31901          
1 59793U 24093M   24144.83335648 -.00867474  23303-3 -25269-2 0  9994
2 59793  43.0033 345.2738 0001362 256.4828 153.4387 15.91919047  2118
STARLINK-31823          
1 59794U 24093N   24144.83335648 -.00864292  23166-3 -25067-2 0  9993
2 59794  43.0032 345.2703 0001880 279.8948 131.3504 15.92000503  2112
STARLINK-31916          
1 59795U 24093P   24145.25001157 -.00900439  24817-3 -26936-2 0  9990
2 59795  43.0032 342.6741 0001935 278.3373   4.6031 15.91410953  2168
STARLINK-31915          
1 59796U 24093Q   24145.58334491  .00929338  41903-3  17361-2 0  9991
2 59796  43.0025 340.4785 0005086 259.3404 185.1450 16.00175116  2227
STARLINK-31907          
1 59797U 24093R   24144.83335648 -.00879225  23939-3 -25284-2 0  9997
2 59797  43.0031 345.2640 0001358 277.6321 136.0934 15.92167895  2066
STARLINK-31687          
1 59798U 24093S   24145.25001157 -.00963202  28274-3 -27689-2 0  9997
2 59798  43.0031 342.6397 0002056 277.9537  18.3428 15.92187243  2165
STARLINK-31810          
1 59799U 24093T   24145.25001157 -.00940308  26989-3 -27409-2 0  9991
2 59799  43.0031 342.6515 0002027 277.7483  13.9361 15.91916917  2168
STARLINK-31812          
1 59800U 24093U   24144.83335648 -.00886198  24330-3 -25234-2 0  9990
2 59800  43.0029 345.2573 0001782 288.1434 128.3941 15.92356924  2173
STARLINK-31815          
1 59801U 24093V   24145.25001157 -.00927314  26267-3 -27280-2 0  9993
2 59801  43.0031 342.6597 0001963 278.3833  10.2307 15.91738023  2166
STARLINK-31814          
1 59802U 24093W   24145.25001157 -.00935999  26742-3 -27404-2 0  9998
2 59802  43.0032 342.6557 0001690 273.9568  16.2546 15.91832547  2164
STARLINK-31794          
1 59803U 24093X   24145.25001157 -.00959564  28056-3 -27706-2 0  9998
2 59803  43.0031 342.6439 0001849 277.5485  17.2724 15.92103106  2237
STARLINK-31824          
1 59804U 24093Y   24145.25001157 -.00950040  27527-3 -27551-2 0  9999
2 59804  43.0032 342.6479 0001959 274.8889  18.4763 15.92017336  2115
2024-094A               
1 59805U 24094A   24145.50757202  .00020017  00000+0  83855-3 0  9991
2 59805  97.4722 216.3949 0010087 254.0363 105.9762 15.23522284   669
2024-094B               
1 59806U 24094B   24145.50556591  .00020590  00000+0  84455-3 0  9993
2 59806  97.4718 216.3974 0010624 270.7967  89.2053 15.24224503   655
2024-094C               
1 59807U 24094C   24145.50621665  .00020014  00000+0  82663-3 0  9999
2 59807  97.4733 216.3972 0010788 264.6851  95.3155 15.23995551   654
2024-094D               
1 59808U 24094D   24145.50658590  .00020380  00000+0  84492-3 0  9995
2 59808  97.4721 216.3961 0010383 262.0336  97.9723 15.23867356   651
2024-092K               
1 59809U 24092K   24144.14046591  .00015857  00000+0  10399-2 0  9992
2 59809  97.5953 256.2540 0012568 256.8589 226.3634 15.07699543   410
2024-095A               
1 59810U 24095A   24145.46361764  .00011333  00000+0  67337-3 0  9995
2 59810  97.6017 220.8164 0009516 256.9271 103.0897 15.11421245   500
2024-095B               
1 59811U 24095B   24145.46349872  .00003103  00000+0  18723-3 0  9993
2 59811  97.6023 220.8202 0009326 262.0485  97.9686 15.11449931   504
2024-095C               
1 59812U 24095C   24145.46302693  .00013463  00000+0  79306-3 0  9998
2 59812  97.6008 220.8137 0008660 263.4371  96.5874 15.11696049   502
2024-095D               
1 59813U 24095D   24145.46260695  .00019589  00000+0  11444-2 0  9997
2 59813  97.6012 220.8150 0007782 262.0732  97.9615 15.11916076   506
